{
  "type": "FeatureCollection",
  "features": [
    {
      "type": "Feature",
      "properties": {
        "norad_id": 57400,
        "name": "TIANMU-1 08",
        "group": "weather",
        "lat": 67.69533429399095,
        "lon": -133.33450754442632,
        "alt_km": 470.4858763858547,
        "timestamp": "2025-12-04T15:47:53.739583+00:00",
        "meta_object_name": "TIANMU-1 08",
        "meta_object_id": "2023-101B",
        "meta_epoch": "2025-12-04T07:27:17.983584",
        "meta_mean_motion": 15.27866983,
        "meta_eccentricity": 0.00074732,
        "meta_inclination": 97.288,
        "meta_ra_of_asc_node": 28.1473,
        "meta_arg_of_pericenter": 107.5431,
        "meta_mean_anomaly": 252.6625,
        "meta_ephemeris_type": 0,
        "meta_classification_type": "U",
        "meta_norad_cat_id": 57400,
        "meta_element_set_no": 999,
        "meta_rev_at_epoch": 13186,
        "meta_bstar": 0.00059259914,
        "meta_mean_motion_dot": 0.0001608,
        "meta_mean_motion_ddot": 0,
        "tle_line1": "1 57400U 23101B   25338.31062481  .00016080  00000+0  59260-3 0  9998",
        "tle_line2": "2 57400  97.2880  28.1473 0007473 107.5431 252.6625 15.27866983131861"
      },
      "geometry": {
        "type": "Point",
        "coordinates": [
          -133.33450754442632,
          67.69533429399095
        ]
      }
    },
    {
      "type": "Feature",
      "properties": {
        "norad_id": 57401,
        "name": "TIANMU-1 09",
        "group": "weather",
        "lat": -3.1358233939521907,
        "lon": -152.3964969042987,
        "alt_km": 484.573779890904,
        "timestamp": "2025-12-04T15:47:53.739593+00:00",
        "meta_object_name": "TIANMU-1 09",
        "meta_object_id": "2023-101C",
        "meta_epoch": "2025-12-04T08:42:47.140704",
        "meta_mean_motion": 15.27892035,
        "meta_eccentricity": 0.00067578,
        "meta_inclination": 97.2837,
        "meta_ra_of_asc_node": 27.7165,
        "meta_arg_of_pericenter": 106.6798,
        "meta_mean_anomaly": 253.5184,
        "meta_ephemeris_type": 0,
        "meta_classification_type": "U",
        "meta_norad_cat_id": 57401,
        "meta_element_set_no": 999,
        "meta_rev_at_epoch": 13187,
        "meta_bstar": 0.0006412872,
        "meta_mean_motion_dot": 0.00017421,
        "meta_mean_motion_ddot": 0,
        "tle_line1": "1 57401U 23101C   25338.36304561  .00017421  00000+0  64129-3 0  9992",
        "tle_line2": "2 57401  97.2837  27.7165 0006757 106.6798 253.5184 15.27892035131875"
      },
      "geometry": {
        "type": "Point",
        "coordinates": [
          -152.3964969042987,
          -3.1358233939521907
        ]
      }
    },
    {
      "type": "Feature",
      "properties": {
        "norad_id": 57402,
        "name": "TIANMU-1 10",
        "group": "weather",
        "lat": -5.021331266770175,
        "lon": 29.49078196384725,
        "alt_km": 487.98874658597833,
        "timestamp": "2025-12-04T15:47:53.739603+00:00",
        "meta_object_name": "TIANMU-1 10",
        "meta_object_id": "2023-101D",
        "meta_epoch": "2025-12-04T07:57:40.747968",
        "meta_mean_motion": 15.27881819,
        "meta_eccentricity": 0.00085345,
        "meta_inclination": 97.2918,
        "meta_ra_of_asc_node": 28.5267,
        "meta_arg_of_pericenter": 107.7057,
        "meta_mean_anomaly": 252.5116,
        "meta_ephemeris_type": 0,
        "meta_classification_type": "U",
        "meta_norad_cat_id": 57402,
        "meta_element_set_no": 999,
        "meta_rev_at_epoch": 13186,
        "meta_bstar": 0.00060860608,
        "meta_mean_motion_dot": 0.00016529,
        "meta_mean_motion_ddot": 0,
        "tle_line1": "1 57402U 23101D   25338.33172162  .00016529  00000+0  60861-3 0  9997",
        "tle_line2": "2 57402  97.2918  28.5267 0008534 107.7057 252.5116 15.27881819131864"
      },
      "geometry": {
        "type": "Point",
        "coordinates": [
          29.49078196384725,
          -5.021331266770175
        ]
      }
    },
    {
      "type": "Feature",
      "properties": {
        "norad_id": 57490,
        "name": "FENGYUN 3F",
        "group": "weather",
        "lat": 25.40750161194121,
        "lon": -128.74279009067854,
        "alt_km": 824.670032873968,
        "timestamp": "2025-12-04T15:47:53.739613+00:00",
        "meta_object_name": "FENGYUN 3F",
        "meta_object_id": "2023-111A",
        "meta_epoch": "2025-12-04T08:18:34.945056",
        "meta_mean_motion": 14.1989025,
        "meta_eccentricity": 6.844e-05,
        "meta_inclination": 98.7094,
        "meta_ra_of_asc_node": 46.7748,
        "meta_arg_of_pericenter": 88.5372,
        "meta_mean_anomaly": 271.5883,
        "meta_ephemeris_type": 0,
        "meta_classification_type": "U",
        "meta_norad_cat_id": 57490,
        "meta_element_set_no": 999,
        "meta_rev_at_epoch": 12121,
        "meta_bstar": 0.00011911227,
        "meta_mean_motion_dot": 2.09e-06,
        "meta_mean_motion_ddot": 0,
        "tle_line1": "1 57490U 23111A   25338.34623779  .00000209  00000+0  11911-3 0  9991",
        "tle_line2": "2 57490  98.7094  46.7748 0000684  88.5372 271.5883 14.19890250121211"
      },
      "geometry": {
        "type": "Point",
        "coordinates": [
          -128.74279009067854,
          25.40750161194121
        ]
      }
    },
    {
      "type": "Feature",
      "properties": {
        "norad_id": 58584,
        "name": "ARKTIKA-M 2",
        "group": "weather",
        "lat": 60.04944813300258,
        "lon": -65.48749801528317,
        "alt_km": 34994.877065424305,
        "timestamp": "2025-12-04T15:47:53.739628+00:00",
        "meta_object_name": "ARKTIKA-M 2",
        "meta_object_id": "2023-198A",
        "meta_epoch": "2025-12-03T08:34:19.284960",
        "meta_mean_motion": 2.00605176,
        "meta_eccentricity": 0.68642509,
        "meta_inclination": 63.2223,
        "meta_ra_of_asc_node": 175.9121,
        "meta_arg_of_pericenter": 268.1397,
        "meta_mean_anomaly": 18.842,
        "meta_ephemeris_type": 0,
        "meta_classification_type": "U",
        "meta_norad_cat_id": 58584,
        "meta_element_set_no": 999,
        "meta_rev_at_epoch": 1439,
        "meta_bstar": 0,
        "meta_mean_motion_dot": 2.24e-06,
        "meta_mean_motion_ddot": 0,
        "tle_line1": "1 58584U 23198A   25337.35716765  .00000224  00000+0  00000+0 0  9999",
        "tle_line2": "2 58584  63.2223 175.9121 6864250 268.1397  18.8420  2.00605176 14390"
      },
      "geometry": {
        "type": "Point",
        "coordinates": [
          -65.48749801528317,
          60.04944813300258
        ]
      }
    },
    {
      "type": "Feature",
      "properties": {
        "norad_id": 58645,
        "name": "TIANMU-1 11",
        "group": "weather",
        "lat": -81.31513009767156,
        "lon": 56.23426379852837,
        "alt_km": 497.51153206719755,
        "timestamp": "2025-12-04T15:47:53.739641+00:00",
        "meta_object_name": "TIANMU-1 11",
        "meta_object_id": "2023-205A",
        "meta_epoch": "2025-12-04T08:17:42.344736",
        "meta_mean_motion": 15.24440474,
        "meta_eccentricity": 0.00087173,
        "meta_inclination": 97.3607,
        "meta_ra_of_asc_node": 358.1178,
        "meta_arg_of_pericenter": 343.2291,
        "meta_mean_anomaly": 16.8657,
        "meta_ephemeris_type": 0,
        "meta_classification_type": "U",
        "meta_norad_cat_id": 58645,
        "meta_element_set_no": 999,
        "meta_rev_at_epoch": 10781,
        "meta_bstar": 0.00056745496,
        "meta_mean_motion_dot": 0.00013882,
        "meta_mean_motion_ddot": 0,
        "tle_line1": "1 58645U 23205A   25338.34562899  .00013882  00000+0  56745-3 0  9998",
        "tle_line2": "2 58645  97.3607 358.1178 0008717 343.2291  16.8657 15.24440474107817"
      },
      "geometry": {
        "type": "Point",
        "coordinates": [
          56.23426379852837,
          -81.31513009767156
        ]
      }
    },
    {
      "type": "Feature",
      "properties": {
        "norad_id": 58646,
        "name": "TIANMU-1 12",
        "group": "weather",
        "lat": 49.3595629048456,
        "lon": -173.10625608048662,
        "alt_km": 492.5619704616229,
        "timestamp": "2025-12-04T15:47:53.739652+00:00",
        "meta_object_name": "TIANMU-1 12",
        "meta_object_id": "2023-205B",
        "meta_epoch": "2025-12-04T07:21:09.232704",
        "meta_mean_motion": 15.24353683,
        "meta_eccentricity": 0.00065553,
        "meta_inclination": 97.3595,
        "meta_ra_of_asc_node": 357.8875,
        "meta_arg_of_pericenter": 329.2294,
        "meta_mean_anomaly": 30.8558,
        "meta_ephemeris_type": 0,
        "meta_classification_type": "U",
        "meta_norad_cat_id": 58646,
        "meta_element_set_no": 999,
        "meta_rev_at_epoch": 10779,
        "meta_bstar": 0.00056553263,
        "meta_mean_motion_dot": 0.00013793,
        "meta_mean_motion_ddot": 0,
        "tle_line1": "1 58646U 23205B   25338.30635686  .00013793  00000+0  56553-3 0  9998",
        "tle_line2": "2 58646  97.3595 357.8875 0006555 329.2294  30.8558 15.24353683107797"
      },
      "geometry": {
        "type": "Point",
        "coordinates": [
          -173.10625608048662,
          49.3595629048456
        ]
      }
    }
  ]
}